[{"OBJECT_NAME":"SITRO-AIS 8 (ANOKHIN)","OBJECT_ID":"2023-091AD","EPOCH":"2026-03-09T23:44:40.058592","MEAN_MOTION":15.29359179,"ECCENTRICITY":0.0012509,"INCLINATION":97.5169,"RA_OF_ASC_NODE":133.2823,"ARG_OF_PERICENTER":92.0171,"MEAN_ANOMALY":268.2501,"EPHEMERIS_TYPE":0,"CLASSIFICATION_TYPE":"U","NORAD_CAT_ID":57193,"ELEMENT_SET_NO":999,"REV_AT_EPOCH":14927,"BSTAR":0.00064982524,"MEAN_MOTION_DOT":0.00018494,"MEAN_MOTION_DDOT":0},{"OBJECT_NAME":"STARLINK-35292","OBJECT_ID":"2025-253D","EPOCH":"2026-03-09T09:46:40.895328","MEAN_MOTION":15.27599112,"ECCENTRICITY":0.0001924,"INCLINATION":43,"RA_OF_ASC_NODE":213.9049,"ARG_OF_PERICENTER":267.9538,"MEAN_ANOMALY":92.1093,"EPHEMERIS_TYPE":0,"CLASSIFICATION_TYPE":"U","NORAD_CAT_ID":66322,"ELEMENT_SET_NO":999,"REV_AT_EPOCH":2020,"BSTAR":0.0015378059,"MEAN_MOTION_DOT":0.00042324,"MEAN_MOTION_DDOT":0}]
